[{"OBJECT_NAME":"JILIN-1 05","OBJECT_ID":"2017-074B","EPOCH":"2026-03-09T21:56:30.612480","MEAN_MOTION":15.3245271,"ECCENTRICITY":0.00045948,"INCLINATION":97.4781,"RA_OF_ASC_NODE":173.8936,"ARG_OF_PERICENTER":206.4038,"MEAN_ANOMALY":153.6971,"EPHEMERIS_TYPE":0,"CLASSIFICATION_TYPE":"U","NORAD_CAT_ID":43023,"ELEMENT_SET_NO":999,"REV_AT_EPOCH":45879,"BSTAR":0.00026108793,"MEAN_MOTION_DOT":8.104e-5,"MEAN_MOTION_DDOT":0},{"OBJECT_NAME":"STARLINK-32323","OBJECT_ID":"2024-193S","EPOCH":"2026-03-09T10:47:19.805856","MEAN_MOTION":15.30186425,"ECCENTRICITY":0.00013178,"INCLINATION":53.1607,"RA_OF_ASC_NODE":91.8512,"ARG_OF_PERICENTER":86.6888,"MEAN_ANOMALY":273.4263,"EPHEMERIS_TYPE":0,"CLASSIFICATION_TYPE":"U","NORAD_CAT_ID":61677,"ELEMENT_SET_NO":999,"REV_AT_EPOCH":7649,"BSTAR":-1.0275989e-5,"MEAN_MOTION_DOT":-6.63e-6,"MEAN_MOTION_DDOT":0}]
